FLOCK 4BE-4             
1 60482U 24149Q   25286.23177366  .00282321  00000+0  24653-2 0  9997
2 60482  97.3979  14.7497 0005925 324.1699  35.9164 15.68068605 65085
FLOCK 4BE-16            
1 60483U 24149R   25286.46995804  .00018124  00000+0  59679-3 0  9993
2 60483  97.3992   4.2314 0004186  74.6125 285.5579 15.31535029 64410
FLOCK 4BE-26            
1 60484U 24149S   25286.20719130  .00023528  00000+0  78562-3 0  9998
2 60484  97.3967   3.6676 0004985  73.5994 286.5795 15.31027549 64364
TOMORROW-S2             
1 60485U 24149T   25286.45875609  .00011418  00000+0  42425-3 0  9994
2 60485  97.4045   3.5675 0004455  73.9896 286.1834 15.27699426 64351
FLOCK 4BE-36            
1 60486U 24149U   25286.58694727  .00022616  00000+0  72224-3 0  9991
2 60486  97.3971   4.5650 0005401  76.9665 283.2180 15.32469989 64450
FLOCK 4BE-25            
1 60487U 24149V   25286.21210714  .00023931  00000+0  81636-3 0  9990
2 60487  97.4029   3.8410 0003991  76.4411 283.7274 15.30334838 64358
FLOCK 4BE-31            
1 60488U 24149W   25286.15775721  .00026747  00000+0  84228-3 0  9996
2 60488  97.4024   4.5149 0004374  79.6091 280.5644 15.32887895 64394
FLOCK 4BE-20            
1 60489U 24149X   25286.47062941  .00022882  00000+0  78742-3 0  9995
2 60489  97.3941   3.5143 0005339  77.1231 283.0606 15.30053488 64382
FLOCK 4BE-23            
1 60490U 24149Y   25286.46990057  .00021184  00000+0  73700-3 0  9997
2 60490  97.4016   3.7577 0005229  80.6332 279.5499 15.29714101 64373
FLOCK 4BE-15            
1 60491U 24149Z   25286.63423253  .00021871  00000+0  68376-3 0  9992
2 60491  97.3953   4.2419 0004879 101.7006 258.4784 15.33158645 64448
FLOCK 4BE-17            
1 60492U 24149AA  25286.58054926  .00020560  00000+0  69320-3 0  9998
2 60492  97.4012   4.2466 0004334  79.5006 280.6723 15.30744028 64416
NUSAT-50 (NANCY ROMAN)  
1 60493U 24149AB  25286.45645994  .00019158  00000+0  67016-3 0  9997
2 60493  97.3998   4.1541 0005403  78.8153 281.3694 15.29557488 64409
FLOCK 4BE-22            
1 60494U 24149AC  25286.46618142  .00025613  00000+0  84428-3 0  9993
2 60494  97.3968   4.0846 0006048  83.4165 276.7765 15.31421980 64413
FLOCK 4BE-34            
1 60495U 24149AD  25286.47142574  .00022334  00000+0  71856-3 0  9994
2 60495  97.4011   4.6412 0005636  91.4212 268.7675 15.32231440 64437
TYCHE                   
1 60496U 24149AE  25286.49620791  .00008769  00000+0  35455-3 0  9990
2 60496  97.4002   2.2902 0005764  87.1383 273.0515 15.24948606 64284
FLOCK 4BE-32            
1 60497U 24149AF  25286.16850530  .00027139  00000+0  88112-3 0  9991
2 60497  97.3951   3.9443 0005549  83.0658 277.1215 15.31900341 64381
NUSAT-48 (HENRIETTA LE*)
1 60498U 24149AG  25286.18193932  .00019775  00000+0  66273-3 0  9991
2 60498  97.3967   3.7304 0005990  83.6891 276.5032 15.30939070 64366
FLOCK 4BE-30            
1 60499U 24149AH  25286.17420067  .00025765  00000+0  83659-3 0  9996
2 60499  97.4029   4.3652 0004867  84.2496 275.9300 15.31911165 63760
NUSAT-49 (KLARA DAN VO*)
1 60500U 24149AJ  25286.19878963  .00019085  00000+0  64872-3 0  9997
2 60500  97.3995   3.8647 0005591  80.9521 279.2352 15.30490951 64364
FLOCK 4BE-11            
1 60501U 24149AK  25286.20328468  .00027065  00000+0  87030-3 0  9998
2 60501  97.3937   4.0209 0005783  84.5109 275.6793 15.32209754 64396
FLOCK 4BE-33            
1 60502U 24149AL  25286.46071085  .00023340  00000+0  79638-3 0  9994
2 60502  97.3955   3.7619 0005952  92.8685 267.3237 15.30324183 64390
FLOCK 4BE-10            
1 60503U 24149AM  25286.58220770  .00074511  00000+0  24012-2 0  9996
2 60503  97.4004   4.3529 0004248  78.3593 281.8125 15.31887235 64422
YAM-7                   
1 60504U 24149AN  25286.18873971  .00012639  00000+0  47620-3 0  9994
2 60504  97.4016   2.9049 0005205  93.5357 266.6477 15.27209443 64298
FLOCK 4BE-24            
1 60505U 24149AP  25286.58547271  .00021587  00000+0  68874-3 0  9996
2 60505  97.3948   4.6035 0005728  93.9571 266.2326 15.32506177 64466
LUR-1                   
1 60506U 24149AQ  25286.63749571  .00012042  00000+0  47500-3 0  9999
2 60506  97.3989   2.6500 0005876  97.9920 262.1986 15.25689045 64323
TANAGER-4001            
1 60507U 24149AR  25285.69696131  .00022691  00000+0  50321-3 0  9994
2 60507  97.3952  11.8377 0010887 239.5944 120.4228 15.43689206 64858
EAGLEEYE                
1 60508U 24149AS  25286.22415897  .00049455  00000+0  11924-2 0  9995
2 60508  97.3977   6.8804 0004424  85.4955 274.6797 15.41065750 64577
FLOCK 4BE-29            
1 60509U 24149AT  25286.57599687  .00023324  00000+0  72542-3 0  9995
2 60509  97.4032   5.3534 0004509 102.1634 258.0113 15.33312384 64487
2024-149AU              
1 60510U 24149AU  25286.58376817  .00019130  00000+0  62488-3 0  9994
2 60510  97.3960   4.5246 0005467  94.6927 265.4939 15.31777252 64455
FLOCK 4BE-2             
1 60511U 24149AV  25286.58789399  .00023881  00000+0  72535-3 0  9990
2 60511  97.4038   5.6763 0004542  98.1124 262.0634 15.34061284 64505
FLOCK 4BE-13            
1 60512U 24149AW  25286.63758770  .00023751  00000+0  75730-3 0  9992
2 60512  97.3946   4.8028 0005780  80.2163 279.9732 15.32506992 64489
FLOCK 4BE-27            
1 60513U 24149AX  25286.46940754  .00014701  00000+0  52888-3 0  9993
2 60513  97.4049   3.8829 0005730 102.3036 257.8846 15.28695539 64373
FLOCK 4BE-9             
1 60514U 24149AY  25286.47101749  .00023360  00000+0  76435-3 0  9993
2 60514  97.4017   4.6507 0004975 106.6267 253.5521 15.31683757 64437
FLOCK 4BE-8             
1 60515U 24149AZ  25286.57894769  .00052001  00000+0  15831-2 0  9992
2 60515  97.3964   4.5207 0003562  76.6660 283.4979 15.33819294 64458
FLOCK 4BE-6             
1 60516U 24149BA  25286.47235890  .00021747  00000+0  73146-3 0  9993
2 60516  97.4019   4.3776 0005573 106.1505 254.0349 15.30805608 64413
FLOCK 4BE-14            
1 60517U 24149BB  25286.50097101  .00022587  00000+0  73626-3 0  9995
2 60517  97.3939   4.4208 0006656 102.5330 257.6657 15.31803401 64448
FLOCK 4BE-1             
1 60518U 24149BC  25286.57363900  .00022842  00000+0  72780-3 0  9990
2 60518  97.4005   5.0838 0005840 100.2665 259.9236 15.32538180 64471
FLOCK 4BE-28            
1 60519U 24149BD  25286.22783571  .00028387  00000+0  86989-3 0  9999
2 60519  97.3971   4.8902 0006355 100.9488 259.2470 15.33734433 64444
IPERDRONE.0             
1 60520U 24149BE  25286.48693649  .00039840  00000+0  95520-3 0  9992
2 60520  97.3995   7.5414 0004900  75.6467 284.5324 15.41282869 64639
2024-149BF              
1 60521U 24149BF  25286.58005935  .00047276  00000+0  10760-2 0  9993
2 60521  97.4012   8.1208 0005071  88.9867 271.1961 15.42809424 64676
CONNECTA IOT-2          
1 60522U 24149BG  25286.47175703  .00009633  00000+0  41579-3 0  9991
2 60522  97.4065   3.4000 0008567 111.0366 249.1788 15.22693216 64342
PTD-R (TYVAK-0127)      
1 60523U 24149BH  25286.50140108  .00044199  00000+0  85116-3 0  9998
2 60523  97.3975   9.6446 0005094  90.6001 269.5833 15.47742960 64787
CONNECTA IOT-4          
1 60524U 24149BJ  25286.46226331  .00026009  00000+0  83441-3 0  9996
2 60524  97.4004   4.4219 0007384  96.4973 263.7110 15.32281699 64425
ORESAT0.5               
1 60525U 24149BK  25286.58632163  .00021861  00000+0  65693-3 0  9994
2 60525  97.3943   5.4622 0007799  89.8719 270.3418 15.34398227 64524
DEIMOS                  
1 60526U 24149BL  25286.58324729  .00021607  00000+0  65805-3 0  9994
2 60526  97.4000   5.6408 0007799  95.3119 264.9014 15.33977189 64519
CUAVA-2                 
1 60527U 24149BM  25286.63536050  .00017862  00000+0  63767-3 0  9996
2 60527  97.3962   3.6803 0009050  94.1567 266.0708 15.28880675 64407
ERNST                   
1 60528U 24149BN  25286.49681246  .00019686  00000+0  65604-3 0  9997
2 60528  97.4026   4.5071 0008365 100.9760 259.2422 15.31107081 64422
GAINDESAT-1A            
1 60529U 24149BP  25286.58870500  .00105779  00000+0  14569-2 0  9993
2 60529  97.3987  11.4631 0003259  83.7332 276.4294 15.56874523 64895
TORO                    
1 60530U 24149BQ  25286.60049895  .00003518  00000+0  32679-3 0  9994
2 60530  97.7047   0.7417 0001451  94.4230 265.7156 14.95017881 63096
HYPSO-2                 
1 60531U 24149BR  25286.57860249  .00005755  00000+0  50796-3 0  9990
2 60531  97.7077   1.4197 0002265  88.9706 271.1775 14.96769235 63134
LEMU NGE                
1 60532U 24149BS  25286.20984238  .00005050  00000+0  46354-3 0  9999
2 60532  97.7084   0.8063 0002467 109.1303 251.0185 14.95282780 63058
LEMUR-2-STELLA          
1 60533U 24149BT  25286.47162840  .00019515  00000+0  13868-2 0  9990
2 60533  97.6947   3.8183 0001990 121.0764 239.0657 15.04727868 63306
SATELIOT_2              
1 60534U 24149BU  25286.57752460  .00003198  00000+0  29793-3 0  9990
2 60534  97.7090   0.9137 0001513 108.9387 251.1998 14.94969278 63102
NIGHTJAR                
1 60535U 24149BV  25286.59229355  .00004090  00000+0  36182-3 0  9997
2 60535  97.7097   1.7481 0000981 123.4317 236.6999 14.96846739105951
LEMUR-2-MARHISYAM       
1 60536U 24149BW  25286.58190490  .00016027  00000+0  11475-2 0  9994
2 60536  97.7073   4.0822 0001972 215.6703 144.4391 15.04488984 63314
SATELIOT_4              
1 60537U 24149BX  25286.57406560  .00003598  00000+0  33157-3 0  9993
2 60537  97.7001   0.5987 0003370 119.3032 240.8526 14.95315843 63108
PICO-02A021             
1 60538U 24149BY  25286.16654086  .00011130  00000+0  90247-3 0  9991
2 60538  97.7092   2.3285 0003693 111.7834 248.3783 14.99841305 62663
ICEYE-X43               
1 60539U 24149BZ  25286.45201266  .00005636  00000+0  48361-3 0  9996
2 60539  97.7041   1.7060 0003463 150.8283 209.3133 14.97875736 63153
HAWK-10A                
1 60540U 24149CA  25286.49625773  .00003585  00000+0  32988-3 0  9994
2 60540  97.7145   1.4961 0004116 154.8793 205.2629 14.95376345 63103
